{"type": "FeatureCollection", "features": [{"type": "Feature", "properties": {"norad_id": 50032, "name": "COSMOS 1408 DEB", "group": "cosmos-1408-debris", "lat": -3.914624701843418, "lon": 61.935498126137645, "alt_km": 440.0063969934454, "timestamp": "2025-12-08T21:31:04.938250+00:00", "meta": {"OBJECT_NAME": "COSMOS 1408 DEB", "OBJECT_ID": "1982-092RU", "EPOCH": "2025-12-08T15:19:11.985024", "MEAN_MOTION": 15.45630719, "ECCENTRICITY": 0.00149145, "INCLINATION": 82.5643, "RA_OF_ASC_NODE": 62.7122, "ARG_OF_PERICENTER": 224.4599, "MEAN_ANOMALY": 135.5454, "EPHEMERIS_TYPE": 0, "CLASSIFICATION_TYPE": "U", "NORAD_CAT_ID": 50032, "ELEMENT_SET_NO": 999, "REV_AT_EPOCH": 22540, "BSTAR": 0.0001566825, "MEAN_MOTION_DOT": 7.615e-05, "MEAN_MOTION_DDOT": 0}, "tle": {"line1": "1 50032U 82092RU  25342.63833316  .00007615  00000+0  15668-3 0  9997", "line2": "2 50032  82.5643  62.7122 0014914 224.4599 135.5454 15.45630719225405"}}, "geometry": {"type": "Point", "coordinates": [61.935498126137645, -3.914624701843418]}}, {"type": "Feature", "properties": {"norad_id": 50058, "name": "COSMOS 1408 DEB", "group": "cosmos-1408-debris", "lat": -53.85440970977272, "lon": 63.13161931727259, "alt_km": 394.64776535409146, "timestamp": "2025-12-08T21:31:04.938272+00:00", "meta": {"OBJECT_NAME": "COSMOS 1408 DEB", "OBJECT_ID": "1982-092SW", "EPOCH": "2025-12-08T07:55:44.645376", "MEAN_MOTION": 15.63709561, "ECCENTRICITY": 0.0016354, "INCLINATION": 82.6131, "RA_OF_ASC_NODE": 73.955, "ARG_OF_PERICENTER": 114.3465, "MEAN_ANOMALY": 245.9504, "EPHEMERIS_TYPE": 0, "CLASSIFICATION_TYPE": "U", "NORAD_CAT_ID": 50058, "ELEMENT_SET_NO": 999, "REV_AT_EPOCH": 22735, "BSTAR": 0.0004087218, "MEAN_MOTION_DOT": 0.00038485, "MEAN_MOTION_DDOT": 0}, "tle": {"line1": "1 50058U 82092SW  25342.33037784  .00038485  00000+0  40872-3 0  9991", "line2": "2 50058  82.6131  73.9550 0016354 114.3465 245.9504 15.63709561227354"}}, "geometry": {"type": "Point", "coordinates": [63.13161931727259, -53.85440970977272]}}, {"type": "Feature", "properties": {"norad_id": 50404, "name": "COSMOS 1408 DEB", "group": "cosmos-1408-debris", "lat": 33.60510395435417, "lon": -135.81002746761135, "alt_km": 644.996595341192, "timestamp": "2025-12-08T21:31:04.938285+00:00", "meta": {"OBJECT_NAME": "COSMOS 1408 DEB", "OBJECT_ID": "1982-092ADS", "EPOCH": "2025-12-08T02:18:52.795296", "MEAN_MOTION": 15.12826412, "ECCENTRICITY": 0.01738853, "INCLINATION": 82.2031, "RA_OF_ASC_NODE": 219.7838, "ARG_OF_PERICENTER": 214.9126, "MEAN_ANOMALY": 144.0605, "EPHEMERIS_TYPE": 0, "CLASSIFICATION_TYPE": "U", "NORAD_CAT_ID": 50404, "ELEMENT_SET_NO": 999, "REV_AT_EPOCH": 21123, "BSTAR": 0.0031525673, "MEAN_MOTION_DOT": 0.00081169, "MEAN_MOTION_DDOT": 0}, "tle": {"line1": "1 50404U 82092ADS 25342.09644439  .00081169  00000+0  31526-2 0  9992", "line2": "2 50404  82.2031 219.7838 0173885 214.9126 144.0605 15.12826412211237"}}, "geometry": {"type": "Point", "coordinates": [-135.81002746761135, 33.60510395435417]}}, {"type": "Feature", "properties": {"norad_id": 50621, "name": "COSMOS 1408 DEB", "group": "cosmos-1408-debris", "lat": 63.02263833922236, "lon": 93.03384170796619, "alt_km": 396.2485551629061, "timestamp": "2025-12-08T21:31:04.938297+00:00", "meta": {"OBJECT_NAME": "COSMOS 1408 DEB", "OBJECT_ID": "1982-092ALR", "EPOCH": "2025-12-08T07:21:18.073152", "MEAN_MOTION": 15.56312621, "ECCENTRICITY": 0.00288415, "INCLINATION": 82.5714, "RA_OF_ASC_NODE": 78.7954, "ARG_OF_PERICENTER": 168.5442, "MEAN_ANOMALY": 191.6476, "EPHEMERIS_TYPE": 0, "CLASSIFICATION_TYPE": "U", "NORAD_CAT_ID": 50621, "ELEMENT_SET_NO": 999, "REV_AT_EPOCH": 22181, "BSTAR": 0.00044459454, "MEAN_MOTION_DOT": 0.00031977, "MEAN_MOTION_DDOT": 0}, "tle": {"line1": "1 50621U 82092ALR 25342.30645918  .00031977  00000+0  44459-3 0  9992", "line2": "2 50621  82.5714  78.7954 0028841 168.5442 191.6476 15.56312621221816"}}, "geometry": {"type": "Point", "coordinates": [93.03384170796619, 63.02263833922236]}}]}